OBJECT_NAME,OBJECT_ID,EPOCH,MEAN_MOTION,ECCENTRICITY,INCLINATION,RA_OF_ASC_NODE,ARG_OF_PERICENTER,MEAN_ANOMALY,EPHEMERIS_TYPE,CLASSIFICATION_TYPE,NORAD_CAT_ID,ELEMENT_SET_NO,REV_AT_EPOCH,BSTAR,MEAN_MOTION_DOT,MEAN_MOTION_DDOT
BEIDOU-2 IGSO-4,2011-038A,2026-06-06T14:49:08.416128,1.00287300,.01590706,54.5986,165.7673,231.3681,173.1210,0,U,37763,999,5454,0,.66E-6,0
ASTRA 1N,2011-041A,2026-06-09T06:35:07.249344,1.00272382,.00062436,0.0816,36.4928,56.8459,282.3084,0,U,37775,999,4444,0,.137E-5,0
BSAT-3C (JCSAT-110R),2011-041B,2026-06-09T00:10:23.273184,1.00271328,.00005174,0.0180,326.2334,202.1972,201.5180,0,U,37776,999,5038,0,-.334E-5,0
PAKSAT-1R,2011-042A,2026-06-09T04:57:44.737056,1.00275087,.00032195,0.6671,84.6801,346.2845,299.0695,0,U,37779,999,5439,0,.17E-5,0
SES-2,2011-049A,2026-06-09T05:26:52.421568,1.00271309,.00028338,0.0454,119.2713,316.9067,176.1519,0,U,37809,999,5388,0,-.179E-5,0
ARABSAT-5C,2011-049B,2026-06-09T06:35:14.736768,1.00273423,.00034515,0.0480,356.2393,103.9726,276.2618,0,U,37810,999,5395,0,.14E-5,0
EUTELSAT 7 WEST A,2011-051A,2026-06-09T06:17:38.674752,1.00271226,.00041916,0.0606,355.2307,95.9603,253.5442,0,U,37816,999,5379,0,-.44E-6,0
QUETZSAT 1,2011-054A,2026-06-09T04:24:54.683136,1.00271563,.00027524,0.0487,71.7250,8.5607,166.5177,0,U,37826,999,4979,0,-.225E-5,0
INTELSAT 18 (IS-18),2011-056A,2026-06-09T02:12:49.370112,1.00272262,.00020678,0.0012,354.7032,100.6597,15.3233,0,U,37834,999,5373,0,.7E-6,0
EUTELSAT 16A,2011-057A,2026-06-09T06:34:07.344768,1.00271190,.0005882,0.0421,357.0523,83.9694,291.1378,0,U,37836,999,725,0,.121E-5,0
VIASAT-1,2011-059A,2026-06-09T05:56:46.265280,1.00269736,.00022894,0.0191,318.9517,123.7175,149.0473,0,U,37843,999,4724,0,-.7E-7,0
ASIASAT 7,2011-069A,2026-06-09T06:59:33.643968,1.00266164,.00012695,0.0180,358.5325,74.1011,35.4264,0,U,37933,999,4478,0,0,0
BEIDOU-2 IGSO-5,2011-073A,2026-06-08T19:07:21.601920,1.00274888,.0113644,47.6948,271.6514,221.6643,142.4598,0,U,37948,999,5305,0,-.162E-5,0
LUCH-5A,2011-074B,2026-06-08T15:01:07.500864,1.00269774,.00023162,8.7313,73.9336,16.8767,198.4781,0,U,37951,999,5296,0,-.35E-6,0
NIGCOMSAT 1R,2011-077A,2026-06-09T06:41:44.114784,1.00272117,.00025222,0.0170,153.2205,199.2801,48.0763,0,U,38014,999,5287,0,.162E-5,0
WGS F4 (USA 233),2012-003A,2026-06-09T06:54:42.870816,1.00268224,.00005103,0.0186,339.0194,293.2747,177.4666,0,U,38070,999,4407,0,0,0
SES-4,2012-007A,2026-06-09T06:23:23.373600,1.00270095,.0002547,0.0255,30.5186,56.9699,243.9987,0,U,38087,999,5214,0,-.152E-5,0
BEIDOU-2 G5,2012-008A,2026-06-09T03:21:02.964960,1.00270320,.00093413,3.5527,69.7464,275.8109,20.9024,0,U,38091,999,5228,0,.74E-6,0
MUOS-1,2012-009A,2026-06-09T05:51:09.334656,1.00270599,.00588588,5.4607,47.1633,1.2082,197.0662,0,U,38093,999,5236,0,-.113E-5,0
INTELSAT 22 (IS-22),2012-011A,2026-06-09T03:24:47.605824,1.00273409,.00016059,0.0264,67.7528,2.5980,310.4768,0,U,38098,999,710,0,-.42E-6,0
APSTAR-7,2012-013A,2026-06-08T12:02:05.404416,1.00271176,.00029941,0.0383,91.7182,355.6426,66.5450,0,U,38107,999,5172,0,-.85E-6,0
YAHSAT 1B,2012-016A,2026-06-09T06:42:58.995072,1.00270056,.00026728,0.0897,90.7627,10.5244,304.7183,0,U,38245,999,4552,0,.143E-5,0
AEHF-2 (USA 235),2012-019A,2026-06-08T23:34:16.629888,1.00270359,.0002332,6.6326,57.5498,10.8378,166.0214,0,U,38254,999,690,0,-.121E-5,0
JCSAT-13,2012-023A,2026-06-09T07:04:55.629120,1.00271836,.000291,0.0177,48.6985,50.9954,28.2230,0,U,38331,999,5146,0,-.339E-5,0
VINASAT-2,2012-023B,2026-06-09T07:07:10.413984,1.00271271,.00023269,0.0203,24.1133,66.8191,45.3923,0,U,38332,999,4658,0,-.312E-5,0
NIMIQ 6,2012-026A,2026-06-09T06:03:38.105568,1.00271321,.00027082,0.0102,350.3137,85.9732,181.1563,0,U,38342,999,5033,0,-.157E-5,0
ZHONGXING-2A,2012-028A,2026-06-09T02:21:38.742048,1.00270358,.00037634,1.4324,83.9891,35.0537,272.0778,0,U,38352,999,5121,0,-.276E-5,0
INTELSAT 19 (IS-19),2012-030A,2026-06-09T05:34:20.320032,1.00271944,.00030442,0.0190,333.0915,112.5620,61.5472,0,U,38356,999,5037,0,-.39E-6,0
ECHOSTAR 17,2012-035A,2026-06-08T23:08:21.302880,1.00268265,.00018542,0.0194,346.5465,87.5137,63.2714,0,U,38551,999,5098,0,0,0
METEOSAT-10 (MSG-3),2012-035B,2026-06-09T01:21:36.206784,1.00275825,.00015788,4.6514,61.0532,334.1660,242.8443,0,U,38552,999,5077,0,.11E-6,0
SES-5,2012-036A,2026-06-09T04:48:23.133600,1.00271403,.00019287,0.0525,308.3728,132.4378,253.8527,0,U,38652,999,4437,0,.51E-6,0
INTELSAT 20 (IS-20),2012-043A,2026-06-09T04:52:21.398880,1.00273783,.00018655,0.0065,83.3464,89.5561,226.2772,0,U,38740,999,5066,0,-.8E-7,0
