BEIDOU-2 IGSO-4         
1 37763U 11038A   26157.61745852  .00000066  00000+0  00000+0 0  9998
2 37763  54.5986 165.7673 0159070 231.3681 173.1210  1.00287300 54540
ASTRA 1N                
1 37775U 11041A   26160.27438946  .00000137  00000+0  00000+0 0  9993
2 37775   0.0816  36.4928 0006243  56.8459 282.3084  1.00272382 44448
BSAT-3C (JCSAT-110R)    
1 37776U 11041B   26160.00721381 -.00000334  00000+0  00000+0 0  9993
2 37776   0.0180 326.2334 0000517 202.1972 201.5180  1.00271328 50387
PAKSAT-1R               
1 37779U 11042A   26160.20676779  .00000170  00000+0  00000+0 0  9996
2 37779   0.6671  84.6801 0003219 346.2845 299.0695  1.00275087 54390
SES-2                   
1 37809U 11049A   26160.22699562 -.00000179  00000+0  00000+0 0  9994
2 37809   0.0454 119.2713 0002833 316.9067 176.1519  1.00271309 53881
ARABSAT-5C              
1 37810U 11049B   26160.27447612  .00000140  00000+0  00000+0 0  9995
2 37810   0.0480 356.2393 0003451 103.9726 276.2618  1.00273423 53951
EUTELSAT 7 WEST A       
1 37816U 11051A   26160.26225318 -.00000044  00000+0  00000+0 0  9994
2 37816   0.0606 355.2307 0004191  95.9603 253.5442  1.00271226 53791
QUETZSAT 1              
1 37826U 11054A   26160.18396624 -.00000225  00000+0  00000+0 0  9999
2 37826   0.0487  71.7250 0002752   8.5607 166.5177  1.00271563 49798
INTELSAT 18 (IS-18)     
1 37834U 11056A   26160.09223808  .00000070  00000+0  00000+0 0  9990
2 37834   0.0012 354.7032 0002067 100.6597  15.3233  1.00272262 53734
EUTELSAT 16A            
1 37836U 11057A   26160.27369612  .00000121  00000+0  00000+0 0  9994
2 37836   0.0421 357.0523 0005882  83.9694 291.1378  1.00271190  7259
VIASAT-1                
1 37843U 11059A   26160.24775770 -.00000007  00000+0  00000+0 0  9991
2 37843   0.0191 318.9517 0002289 123.7175 149.0473  1.00269736 47248
ASIASAT 7               
1 37933U 11069A   26160.29136162  .00000000  00000+0  00000+0 0  9995
2 37933   0.0180 358.5325 0001269  74.1011  35.4264  1.00266164 44782
BEIDOU-2 IGSO-5         
1 37948U 11073A   26159.79677780 -.00000162  00000+0  00000+0 0  9995
2 37948  47.6948 271.6514 0113644 221.6643 142.4598  1.00274888 53054
LUCH-5A                 
1 37951U 11074B   26159.62578126 -.00000035  00000+0  00000+0 0  9995
2 37951   8.7313  73.9336 0002316  16.8767 198.4781  1.00269774 52963
NIGCOMSAT 1R            
1 38014U 11077A   26160.27898281  .00000162  00000+0  00000+0 0  9999
2 38014   0.0170 153.2205 0002522 199.2801  48.0763  1.00272117 52876
WGS F4 (USA 233)        
1 38070U 12003A   26160.28799619  .00000000  00000+0  00000+0 0  9998
2 38070   0.0186 339.0194 0000510 293.2747 177.4666  1.00268224 44071
SES-4                   
1 38087U 12007A   26160.26624275 -.00000152  00000+0  00000+0 0  9992
2 38087   0.0255  30.5186 0002547  56.9699 243.9987  1.00270095 52143
BEIDOU-2 G5             
1 38091U 12008A   26160.13961765  .00000074  00000+0  00000+0 0  9994
2 38091   3.5527  69.7464 0009341 275.8109  20.9024  1.00270320 52289
MUOS-1                  
1 38093U 12009A   26160.24385804 -.00000113  00000+0  00000+0 0  9998
2 38093   5.4607  47.1633 0058858   1.2082 197.0662  1.00270599 52368
INTELSAT 22 (IS-22)     
1 38098U 12011A   26160.14221766 -.00000042  00000+0  00000+0 0  9992
2 38098   0.0264  67.7528 0001605   2.5980 310.4768  1.00273409  7106
APSTAR-7                
1 38107U 12013A   26159.50145144 -.00000085  00000+0  00000+0 0  9995
2 38107   0.0383  91.7182 0002994 355.6426  66.5450  1.00271176 51724
YAHSAT 1B               
1 38245U 12016A   26160.27984948  .00000143  00000+0  00000+0 0  9994
2 38245   0.0897  90.7627 0002672  10.5244 304.7183  1.00270056 45525
AEHF-2 (USA 235)        
1 38254U 12019A   26159.98213692 -.00000121  00000+0  00000+0 0  9991
2 38254   6.6326  57.5498 0002332  10.8378 166.0214  1.00270359  6904
JCSAT-13                
1 38331U 12023A   26160.29508830 -.00000339  00000+0  00000+0 0  9990
2 38331   0.0177  48.6985 0002910  50.9954  28.2230  1.00271836 51460
VINASAT-2               
1 38332U 12023B   26160.29664831 -.00000312  00000+0  00000+0 0  9996
2 38332   0.0203  24.1133 0002326  66.8191  45.3923  1.00271271 46584
NIMIQ 6                 
1 38342U 12026A   26160.25252437 -.00000157  00000+0  00000+0 0  9998
2 38342   0.0102 350.3137 0002708  85.9732 181.1563  1.00271321 50331
ZHONGXING-2A            
1 38352U 12028A   26160.09836507 -.00000276  00000+0  00000+0 0  9991
2 38352   1.4324  83.9891 0003763  35.0537 272.0778  1.00270358 51215
INTELSAT 19 (IS-19)     
1 38356U 12030A   26160.23217963 -.00000039  00000+0  00000+0 0  9990
2 38356   0.0190 333.0915 0003044 112.5620  61.5472  1.00271944 50377
ECHOSTAR 17             
1 38551U 12035A   26159.96413545  .00000000  00000+0  00000+0 0  9991
2 38551   0.0194 346.5465 0001854  87.5137  63.2714  1.00268265 50985
METEOSAT-10 (MSG-3)     
1 38552U 12035B   26160.05666906  .00000011  00000+0  00000+0 0  9997
2 38552   4.6514  61.0532 0001578 334.1660 242.8443  1.00275825 50772
SES-5                   
1 38652U 12036A   26160.20026775  .00000051  00000+0  00000+0 0  9994
2 38652   0.0525 308.3728 0001928 132.4378 253.8527  1.00271403 44375
INTELSAT 20 (IS-20)     
1 38740U 12043A   26160.20302545 -.00000008  00000+0  00000+0 0  9995
2 38740   0.0065  83.3464 0001865  89.5561 226.2772  1.00273783 50663
